{
    "links": {
        "self": "http://www.neowsapp.com/rest/v1/neo/3597332?api_key=iIulBulltgU6a56xZRHN4H3l9WmuAYTsLGpBGhQ2"
    },
    "id": "3597332",
    "neo_reference_id": "3597332",
    "name": "(2012 CS)",
    "designation": "2012 CS",
    "nasa_jpl_url": "http://ssd.jpl.nasa.gov/sbdb.cgi?sstr=3597332",
    "absolute_magnitude_h": 23.1,
    "estimated_diameter": {
        "kilometers": {
            "estimated_diameter_min": 0.063760979,
            "estimated_diameter_max": 0.1425738833
        },
        "meters": {
            "estimated_diameter_min": 63.7609789875,
            "estimated_diameter_max": 142.5738833281
        },
        "miles": {
            "estimated_diameter_min": 0.0396192233,
            "estimated_diameter_max": 0.0885912765
        },
        "feet": {
            "estimated_diameter_min": 209.1895703015,
            "estimated_diameter_max": 467.7620993781
        }
    },
    "is_potentially_hazardous_asteroid": false,
    "close_approach_data": [
        {
            "close_approach_date": "2012-01-23",
            "close_approach_date_full": "2012-Jan-23 04:19",
            "epoch_date_close_approach": 1327292340000,
            "relative_velocity": {
                "kilometers_per_second": "19.6568957956",
                "kilometers_per_hour": "70764.8248642676",
                "miles_per_hour": "43970.5102052445"
            },
            "miss_distance": {
                "astronomical": "0.039878891",
                "lunar": "15.512888599",
                "kilometers": "5965797.15156217",
                "miles": "3706974.455291146"
            },
            "orbiting_body": "Earth"
        }
    ],
    "orbital_data": {
        "orbit_id": "6",
        "orbit_determination_date": "2017-04-06 08:51:03",
        "first_observation_date": "2012-02-02",
        "last_observation_date": "2012-02-18",
        "data_arc_in_days": 16,
        "observations_used": 34,
        "orbit_uncertainty": "8",
        "minimum_orbit_intersection": ".00592227",
        "jupiter_tisserand_invariant": "3.149",
        "epoch_osculation": "2455962.5",
        "eccentricity": ".7066668916845337",
        "semi_major_axis": "2.372341783735148",
        "inclination": "1.125555643595129",
        "ascending_node_longitude": "168.6317364965525",
        "orbital_period": "1334.640544603135",
        "perihelion_distance": ".6958863894096887",
        "perihelion_argument": "238.1505605451079",
        "aphelion_distance": "4.048797178060607",
        "perihelion_time": "2455906.992483458807",
        "mean_anomaly": "14.97235044719212",
        "mean_motion": ".2697355489878727",
        "equinox": "J2000",
        "orbit_class": {
            "orbit_class_type": "APO",
            "orbit_class_description": "Near-Earth asteroid orbits which cross the Earth’s orbit similar to that of 1862 Apollo",
            "orbit_class_range": "a (semi-major axis) > 1.0 AU; q (perihelion) < 1.017 AU"
        }
    },
    "is_sentry_object": false
}